[{"OBJECT_NAME":"STARLINK-5259","OBJECT_ID":"2022-141BE","EPOCH":"2026-03-09T21:28:05.817792","MEAN_MOTION":15.08827948,"ECCENTRICITY":0.0001888,"INCLINATION":53.2209,"RA_OF_ASC_NODE":342.8576,"ARG_OF_PERICENTER":121.5664,"MEAN_ANOMALY":238.5513,"EPHEMERIS_TYPE":0,"CLASSIFICATION_TYPE":"U","NORAD_CAT_ID":54209,"ELEMENT_SET_NO":999,"REV_AT_EPOCH":18617,"BSTAR":-6.0362453e-5,"MEAN_MOTION_DOT":-1.248e-5,"MEAN_MOTION_DDOT":0},{"OBJECT_NAME":"OBJECT A","OBJECT_ID":"2024-205A","EPOCH":"2026-03-09T23:47:25.060128","MEAN_MOTION":15.10420635,"ECCENTRICITY":0.00183963,"INCLINATION":97.4208,"RA_OF_ASC_NODE":142.0688,"ARG_OF_PERICENTER":137.3438,"MEAN_ANOMALY":222.9224,"EPHEMERIS_TYPE":0,"CLASSIFICATION_TYPE":"U","NORAD_CAT_ID":61894,"ELEMENT_SET_NO":999,"REV_AT_EPOCH":7322,"BSTAR":0.00061451018,"MEAN_MOTION_DOT":0.00010084,"MEAN_MOTION_DDOT":0}]
